NORAD_CAT_ID,OBJECT_NAME,OBJECT_TYPE,EPOCH,MEAN_MOTION,ECCENTRICITY,INCLINATION,RA_OF_ASC_NODE,ARG_OF_PERICENTER,MEAN_ANOMALY,BSTAR,MEAN_MOTION_DOT,MEAN_MOTION_DDOT,TLE_LINE0,TLE_LINE1,TLE_LINE2,SEMIMAJOR_AXIS,PERIOD,APOGEE,PERIGEE,DECAYED
53034.0,STARLINK-4151,PAYLOAD,2023-02-24 21:39:23,15.08831804,7.03e-05,53.2208,11.6597,101.999,258.1081,7.0863e-05,8.4e-06,0.0,0 STARLINK-4151,1 53034U 22076BA  23055.90235393  .00000840  00000-0  70863-4 0  9991,2 53034  53.2208  11.6597 0000703 101.9990 258.1081 15.08831804 36197,6917.905,95.438,540.257,539.284,0.0
53034.0,STARLINK-4151,PAYLOAD,2023-02-25 05:36:19,15.08833591,6.3e-05,53.2204,10.1708,86.8477,273.2588,5.5467e-05,5.95e-06,0.0,0 STARLINK-4151,1 53034U 22076BA  23056.23355547  .00000595  00000-0  55467-4 0  9992,2 53034  53.2204  10.1708 0000630  86.8477 273.2588 15.08833591 35780,6917.9,95.438,540.201,539.329,0.0
53034.0,STARLINK-4151,PAYLOAD,2023-02-26 05:27:04,15.08860464,7.19e-05,53.2196,5.7118,76.8518,283.2555,0.00011063,1.474e-05,0.0,0 STARLINK-4151,1 53034U 22076BA  23057.22714026  .00001474  00000-0  11063-3 0  9993,2 53034  53.2196   5.7118 0000719  76.8518 283.2555 15.08860464 36390,6917.818,95.436,540.18,539.185,0.0
53034.0,STARLINK-4151,PAYLOAD,2023-02-26 21:20:56,15.08842662,8.17e-05,53.2193,2.7387,66.3772,293.7306,0.00020113,2.915e-05,0.0,0 STARLINK-4151,1 53034U 22076BA  23057.88954846  .00002915  00000-0  20113-3 0  9998,2 53034  53.2193   2.7387 0000817  66.3772 293.7306 15.08842662 36498,6917.872,95.437,540.302,539.172,0.0
53034.0,STARLINK-4151,PAYLOAD,2023-02-27 05:17:51,15.08863851,6.98e-05,53.2196,1.2504,77.4862,282.6208,0.00032491,4.89e-05,0.0,0 STARLINK-4151,1 53034U 22076BA  23058.22072969  .00004890  00000-0  32491-3 0  9990,2 53034  53.2196   1.2504 0000698  77.4862 282.6208 15.08863851 36543,6917.807,95.436,540.155,539.19,0.0
53034.0,STARLINK-4151,PAYLOAD,2023-02-27 19:36:20,15.08859332,0.0001383,53.2195,358.5768,67.9384,292.1755,8.8051e-05,1.114e-05,0.0,0 STARLINK-4151,1 53034U 22076BA  23058.81689823  .00001114  00000-0  88051-4 0  9998,2 53034  53.2195 358.5768 0001383  67.9384 292.1755 15.08859332 36639,6917.821,95.436,540.643,538.73,0.0
53034.0,STARLINK-4151,PAYLOAD,2023-02-28 05:08:37,15.08873229,0.0001226,53.2178,356.7916,58.3226,301.7886,0.00024034,3.543e-05,0.0,0 STARLINK-4151,1 53034U 22076BA  23059.21432384  .00003543  00000-0  24034-3 0  9999,2 53034  53.2178 356.7916 0001226  58.3226 301.7886 15.08873229 36699,6917.779,95.435,540.492,538.796,0.0
53034.0,STARLINK-4151,PAYLOAD,2023-03-01 04:59:28,15.08811721,0.0001487,53.218,352.3294,80.4017,279.7143,-0.00047302,-7.802e-05,0.0,0 STARLINK-4151,1 53034U 22076BA  23060.20796525 -.00007802  00000-0 -47302-3 0  9997,2 53034  53.2180 352.3294 0001487  80.4017 279.7143 15.08811721 36842,6917.967,95.439,540.861,538.803,0.0
53034.0,STARLINK-4151,PAYLOAD,2023-03-01 17:42:32,15.08830636,0.0001679,53.2174,349.9506,92.7899,267.3285,6.548e-05,7.54e-06,0.0,0 STARLINK-4151,1 53034U 22076BA  23060.73788126  .00000754  00000-0  65480-4 0  9998,2 53034  53.2174 349.9506 0001679  92.7899 267.3285 15.08830636 36925,6917.909,95.438,540.936,538.612,0.0
53034.0,STARLINK-4151,PAYLOAD,2023-03-02 01:39:27,15.08851323,0.0001731,53.2178,348.4664,69.0217,291.096,0.00020434,2.966e-05,0.0,0 STARLINK-4151,1 53034U 22076BA  23061.06906897  .00002966  00000-0  20434-3 0  9998,2 53034  53.2178 348.4664 0001731  69.0217 291.0960 15.08851323 36973,6917.846,95.437,540.908,538.513,0.0
53034.0,STARLINK-4151,PAYLOAD,2023-03-02 04:50:13,15.08854289,0.0001717,53.217,347.8706,72.2779,287.84,0.00028092,4.187e-05,0.0,0 STARLINK-4151,1 53034U 22076BA  23061.20154764  .00004187  00000-0  28092-3 0  9997,2 53034  53.2170 347.8706 0001717  72.2779 287.8400 15.08854289 36536,6917.837,95.437,540.89,538.514,0.0
53034.0,STARLINK-4151,PAYLOAD,2023-03-03 04:41:00,15.08877835,0.0001803,53.2171,343.4105,71.8054,288.3134,0.00090337,0.00014133,0.0,0 STARLINK-4151,1 53034U 22076BA  23062.19514451  .00014133  00000-0  90337-3 0  9992,2 53034  53.2171 343.4105 0001803  71.8054 288.3134 15.08877835 37149,6917.765,95.435,540.877,538.382,0.0
53034.0,STARLINK-4151,PAYLOAD,2023-03-03 18:59:28,15.08851277,0.0001534,53.2173,340.7338,80.592,279.5246,-0.00010907,-2.024e-05,0.0,0 STARLINK-4151,1 53034U 22076BA  23062.79130763 -.00002024  00000-0 -10907-3 0  9991,2 53034  53.2173 340.7338 0001534  80.5920 279.5246 15.08851277 36775,6917.846,95.437,540.772,538.65,0.0
53034.0,STARLINK-4151,PAYLOAD,2023-03-03 22:10:15,15.08851029,0.0001434,53.2173,340.1391,75.9835,284.1316,-9.767e-05,-1.843e-05,0.0,0 STARLINK-4151,1 53034U 22076BA  23062.92378706 -.00001843  00000-0 -97670-4 0  9998,2 53034  53.2173 340.1391 0001434  75.9835 284.1316 15.08851029 37259,6917.847,95.437,540.704,538.72,0.0
53034.0,STARLINK-4151,PAYLOAD,2023-03-04 04:31:47,15.08863662,0.0001505,53.2175,338.9495,78.8076,281.3085,0.00017028,2.425e-05,0.0,0 STARLINK-4151,1 53034U 22076BA  23063.18874076  .00002425  00000-0  17028-3 0  9991,2 53034  53.2175 338.9495 0001505  78.8076 281.3085 15.08863662 37291,6917.808,95.436,540.714,538.632,0.0
53034.0,STARLINK-4151,PAYLOAD,2023-03-04 18:50:16,15.08836209,0.0002178,53.2184,336.2703,81.6922,278.4317,-0.0004806,-7.928e-05,0.0,0 STARLINK-4151,1 53034U 22076BA  23063.78491003 -.00007928  00000-0 -48060-3 0  9997,2 53034  53.2184 336.2703 0002178  81.6922 278.4317 15.08836209 37385,6917.892,95.438,541.264,538.25,0.0
53034.0,STARLINK-4151,PAYLOAD,2023-03-05 04:22:35,15.0884115,0.0001842,53.2173,334.4891,88.1234,271.9969,0.00017569,2.509e-05,0.0,0 STARLINK-4151,1 53034U 22076BA  23064.18235109  .00002509  00000-0  17569-3 0  9993,2 53034  53.2173 334.4891 0001842  88.1234 271.9969 15.08841150 37445,6917.877,95.437,541.016,538.468,0.0
53034.0,STARLINK-4151,PAYLOAD,2023-03-05 21:51:50,15.08840275,0.0001952,53.2177,331.2192,103.9267,256.1942,0.00037671,5.712e-05,0.0,0 STARLINK-4151,1 53034U 22076BA  23064.91099755  .00005712  00000-0  37671-3 0  9994,2 53034  53.2177 331.2192 0001952 103.9267 256.1942 15.08840275 37557,6917.88,95.438,541.095,538.394,0.0
53034.0,STARLINK-4151,PAYLOAD,2023-03-06 02:37:59,15.0885884,0.0001345,53.2178,330.3261,95.7545,264.36,0.0011467,0.00018018,0.0,0 STARLINK-4151,1 53034U 22076BA  23065.10971377  .00018018  00000-0  11467-2 0  9992,2 53034  53.2178 330.3261 0001345  95.7545 264.3600 15.08858840 37580,6917.823,95.436,540.618,538.757,0.0
53034.0,STARLINK-4151,PAYLOAD,2023-03-06 18:31:51,15.08830907,0.0001879,53.217,327.3528,90.6271,269.4936,-3.4623e-06,-3.43e-06,0.0,0 STARLINK-4151,1 53034U 22076BA  23065.77212313 -.00000343  00000-0 -34623-5 0  9999,2 53034  53.2170 327.3528 0001879  90.6271 269.4936 15.08830907 37689,6917.908,95.438,541.073,538.473,0.0
53034.0,STARLINK-4151,PAYLOAD,2023-03-07 02:28:46,15.08844995,0.0001531,53.2165,325.8654,84.5529,275.5638,0.00043438,6.633e-05,0.0,0 STARLINK-4151,1 53034U 22076BA  23066.10332117  .00006633  00000-0  43438-3 0  9990,2 53034  53.2165 325.8654 0001531  84.5529 275.5638 15.08844995 37734,6917.865,95.437,540.789,538.671,0.0
53034.0,STARLINK-4151,PAYLOAD,2023-03-07 23:08:47,15.0885066,0.0001475,53.2159,322.0011,81.7284,278.3875,0.00032577,4.902e-05,0.0,0 STARLINK-4151,1 53034U 22076BA  23066.96443837  .00004902  00000-0  32577-3 0  9995,2 53034  53.2159 322.0011 0001475  81.7284 278.3875 15.08850660 37401,6917.848,95.437,540.733,538.692,0.0
53034.0,STARLINK-4151,PAYLOAD,2023-03-08 16:38:02,15.0883585,0.0002088,53.2162,318.7307,80.6603,279.4625,8.6057e-06,-1.51e-06,0.0,0 STARLINK-4151,1 53034U 22076BA  23067.69308587 -.00000151  00000-0  86057-5 0  9995,2 53034  53.2162 318.7307 0002088  80.6603 279.4625 15.08835850 37970,6917.893,95.438,541.203,538.314,0.0
53034.0,STARLINK-4151,PAYLOAD,2023-03-09 19:39:35,15.08852362,0.0001362,53.2189,313.6759,89.7982,270.3167,0.00041913,6.391e-05,0.0,0 STARLINK-4151,1 53034U 22076BA  23068.81916285  .00006391  00000-0  41913-3 0  9991,2 53034  53.2189 313.6759 0001362  89.7982 270.3167 15.08852362 38146,6917.843,95.437,540.65,538.765,0.0
53034.0,STARLINK-4151,PAYLOAD,2023-03-09 22:50:22,15.08862159,0.0001459,53.2169,313.0801,72.9123,287.2029,0.0012045,0.00018945,0.0,0 STARLINK-4151,1 53034U 22076BA  23068.95164355  .00018945  00000-0  12045-2 0  9990,2 53034  53.2169 313.0801 0001459  72.9123 287.2029 15.08862159 37704,6917.813,95.436,540.687,538.668,0.0
53034.0,STARLINK-4151,PAYLOAD,2023-03-10 19:30:23,15.08837371,0.000114,53.217,309.2141,91.237,268.8753,4.5256e-05,4.32e-06,0.0,0 STARLINK-4151,1 53034U 22076BA  23069.81276826  .00000432  00000-0  45256-4 0  9997,2 53034  53.2170 309.2141 0001140  91.2370 268.8753 15.08837371 38297,6917.888,95.438,540.542,538.965,0.0
53034.0,STARLINK-4151,PAYLOAD,2023-03-10 22:41:09,15.08832743,0.0001128,53.2168,308.6189,93.6636,266.4486,-5.6064e-05,-1.18e-05,0.0,0 STARLINK-4151,1 53034U 22076BA  23069.94524915 -.00001180  00000-0 -56064-4 0  9998,2 53034  53.2168 308.6189 0001128  93.6636 266.4486 15.08832743 37852,6917.903,95.438,540.548,538.987,0.0
53034.0,STARLINK-4151,PAYLOAD,2023-03-11 00:16:32,15.08834084,0.0001226,53.2173,308.322,95.3263,264.7869,1.0447e-05,-1.22e-06,0.0,0 STARLINK-4151,1 53034U 22076BA  23070.01148948 -.00000122  00000-0  10447-4 0  9995,2 53034  53.2173 308.3220 0001226  95.3263 264.7869 15.08834084 37862,6917.898,95.438,540.612,538.915,0.0
53034.0,STARLINK-4151,PAYLOAD,2023-03-12 01:42:42,15.08846117,0.0001211,53.2167,303.5612,94.574,265.539,0.00039148,5.949e-05,0.0,0 STARLINK-4151,1 53034U 22076BA  23071.07133059  .00005949  00000-0  39148-3 0  9998,2 53034  53.2167 303.5612 0001211  94.5740 265.5390 15.08846117 38489,6917.862,95.437,540.564,538.889,0.0
53034.0,STARLINK-4151,PAYLOAD,2023-03-13 01:33:29,15.08847196,0.0001159,53.2165,299.1005,86.1847,273.9278,0.00017482,2.496e-05,0.0,0 STARLINK-4151,1 53034U 22076BA  23072.06492846  .00002496  00000-0  17482-3 0  9991,2 53034  53.2165 299.1005 0001159  86.1847 273.9278 15.08847196 38632,6917.858,95.437,540.525,538.922,0.0
